METHANESAT              
1 59101U 24043D   25127.83116201  .00003698  00000+0  34165-3 0  9995
2 59101  97.7945 254.1157 0009229 284.2443  75.7752 14.95187493 64029
